{
"type": "FeatureCollection",
"name": "europe_2025-09-21_12UTC_OGIMET",
"crs": { "type": "name", "properties": { "name": "urn:ogc:def:crs:OGC:1.3:CRS84" } },
"features": [
{ "type": "Feature", "properties": { "synop": "AAXX 21121\n12843 25970 01704 10301 20096 30016 40174 57020 333 60005 90710 91108 91008==" }, "geometry": { "type": "Point", "coordinates": [ 19.181944, 47.429167 ] } },
{ "type": "Feature", "properties": { "synop": "AAXX 21124\n16405 12970 00414 10266 20203 30154 40178 57016 60001==" }, "geometry": { "type": "Point", "coordinates": [ 13.099167, 38.181667 ] } },
{ "type": "Feature", "properties": { "synop": "AAXX 21124\n16239 12680 22507 10289 20177 30027 40183 57012 60001 82100 333 82840==" }, "geometry": { "type": "Point", "coordinates": [ 12.584444, 41.808056 ] } },
{ "type": "Feature", "properties": { "synop": "AAXX 21124\n16105 12565 11505 10247 20203 30172 40174 57012 60001 81500 333 81630==" }, "geometry": { "type": "Point", "coordinates": [ 12.351667, 45.505278 ] } },
{ "type": "Feature", "properties": { "synop": "AAXX 21121\n07690 04480 51103 10259 20209 30130 40160 58013 60001 85551 333 30020 55309 22597 59063 60007 85618 84356 82076 91005 90710 91105 555 60005 90760 91107==" }, "geometry": { "type": "Point", "coordinates": [ 7.208889, 43.648889 ] } },
{ "type": "Feature", "properties": { "synop": "AAXX 21121\n07630 04468 83105 10159 20143 39996 40173 57006 60041 88/// 333 31017 55300 20762 59002 69927 85/10 86/19 87/26 91007 90710 91108 555 69905 90760 91109==" }, "geometry": { "type": "Point", "coordinates": [ 1.378889, 43.620833 ] } },
{ "type": "Feature", "properties": { "synop": "AAXX 21121\n07201 04583 70303 10177 20122 30046 40146 50001 60041 86///\n      333 30005 55306 22034 58028 60037 81/21 86/43 87/56 91007 90710 91107 555 60005 90760 91107==" }, "geometry": { "type": "Point", "coordinates": [ -4.160556, 47.972778 ] } },
{ "type": "Feature", "properties": { "synop": "AAXX 21121\n07354 04485 81802 10154 20127 39985 40171 58002 60041 87///\n      333 3/016 55300 20999 58004 60017 87/14 88/67 91003 90710 91103 555 60005 90760 91106==" }, "geometry": { "type": "Point", "coordinates": [ 1.740833, 46.869444 ] } },
{ "type": "Feature", "properties": { "synop": "AAXX 21121\n07037 04585 60203 10161 20095 39987 40173 51005 60001 82/// 333 3/014 55306 22111 58038 60007 82/28 86/57 91006 90710\n91106 555 60005 90760 91106==" }, "geometry": { "type": "Point", "coordinates": [ 1.181667, 49.382778 ] } },
{ "type": "Feature", "properties": { "synop": "AAXX 21121\n07490 04681 80702 10206 20156 39616 40132 58011 69921 88/// 333 59060 69927 88/47 91003 90710 91105 555 69925 90760 91107==" }, "geometry": { "type": "Point", "coordinates": [ 6.105556, 45.929444 ] } },
{ "type": "Feature", "properties": { "synop": "AAXX 21124\n16332 12960 00104 10304 20154 30123 40179 58015 60001 333 59038==" }, "geometry": { "type": "Point", "coordinates": [ 18.138889, 40.238056 ] } },
{ "type": "Feature", "properties": { "synop": "AAXX 21121\n11150 25983 09903 10273 20145 39609 40101 58021 333 60005==" }, "geometry": { "type": "Point", "coordinates": [ 13.008333, 47.789167 ] } },
{ "type": "Feature", "properties": { "synop": "AAXX 21121\n10637 07589 82907 10193 20140 30024 40147 52008 60071 72365 333 55301 20830 30690 41416 69907 83/24 87/36 88/46 91011 90760 91111 90760 91208==" }, "geometry": { "type": "Point", "coordinates": [ 8.521111, 50.025833 ] } },
{ "type": "Feature", "properties": { "synop": "AAXX 21121\n10488 05985 02403 10286 20146 39841 40101 57009 60001 333 55310 22203 30269 41361 60007 91006 90760 91108 90760 91206==" }, "geometry": { "type": "Point", "coordinates": [ 13.754167, 51.127778 ] } },
{ "type": "Feature", "properties": { "synop": "AAXX 21121\n10147 07681 82309 10187 20109 30071 40089 51006 69901 72365 333 55306 21707 31036 41276 69907 83/34 87/60 88/68 91015 90760 91115 90760 91211==" }, "geometry": { "type": "Point", "coordinates": [ 9.988056, 53.633056 ] } },
{ "type": "Feature", "properties": { "synop": "AAXX 21121\n06344 07980 83602 10143 20106 30168 40164 51028 69931 7228/ 88/// 333 55/// 20729 553// 21187 60005 91004 90760 91113==" }, "geometry": { "type": "Point", "coordinates": [ 4.446667, 51.960556 ] } },
{ "type": "Feature", "properties": { "synop": "AAXX 21124\n06074 25580 72215 10167 20128 39968 40033 52009 7//86 88/// 333 69907 81/21 87/35 91023 90710 91125 555 60005==" }, "geometry": { "type": "Point", "coordinates": [ 10.135278, 56.080278 ] } },
{ "type": "Feature", "properties": { "synop": "AAXX 21124\n06190 45760 12106 10195 20169 30052 40072 52002 7//33 81/// 333 81/56 81/61 91010 90710 91114==" }, "geometry": { "type": "Point", "coordinates": [ 14.75, 55.066667 ] } },
{ "type": "Feature", "properties": { "synop": "AAXX 21124\n16539 12970 0//15 10310 20119 30040 40147 57012 60001 333 59057==" }, "geometry": { "type": "Point", "coordinates": [ 8.459167, 39.740833 ] } },
{ "type": "Feature", "properties": { "synop": "AAXX 21124\n08175 02575 71607 10291 20213 30034 40120 58016 60001 84811 333 60007==" }, "geometry": { "type": "Point", "coordinates": [ 1.178889, 41.149444 ] } },
{ "type": "Feature", "properties": { "synop": "AAXX 21124\n08360 02981 71707 10277 20216 30095 40130 58011 60001 87570 333 60007==" }, "geometry": { "type": "Point", "coordinates": [ -0.570556, 38.282778 ] } },
{ "type": "Feature", "properties": { "synop": "AAXX 21124\n08223 12960 02614 10230 20063 39363 40126 57005 60001==" }, "geometry": { "type": "Point", "coordinates": [ -3.785833, 40.375556 ] } },
{ "type": "Feature", "properties": { "synop": "AAXX 21124\n08495 05978 02013 10257 20185 30150 40156 58002 60001 333 55310 60005 91019 90710 91119==" }, "geometry": { "type": "Point", "coordinates": [ -5.349167, 36.151667 ] } },
{ "type": "Feature", "properties": { "synop": "AAXX 21124\n08001 01457 33008 10179 21108 30156 40236 50009 60031 71581 83361 333 69947 83910==" }, "geometry": { "type": "Point", "coordinates": [ -8.421389, 43.365556 ] } },
{ "type": "Feature", "properties": { "synop": "AAXX 21124\n08021 01570 72811 10189 20128 30195 40197 58002 60121 72186 87250 333 69907==" }, "geometry": { "type": "Point", "coordinates": [ -3.831389, 43.429167 ] } },
{ "type": "Feature", "properties": { "synop": "AAXX 21121\n08540 22560 13510 10200 20065 30161 40228 52006 81800 333 60007 70000 81825 91015 90760 91115==" }, "geometry": { "type": "Point", "coordinates": [ -8.882778, 39.828056 ] } },
{ "type": "Feature", "properties": { "synop": "AAXX 21124\n03647 05587 50209 10131 20057 39945 40197 52017 60001 85/// 333 553// 22155 60005 82/28 83/60 91014 90710 91114==" }, "geometry": { "type": "Point", "coordinates": [ -1.693056, 51.860556 ] } },
{ "type": "Feature", "properties": { "synop": "AAXX 2112/\n03220 07681 2//// 10128 20042 30174 40208 51013 60001 723// 82/// 333 60005 82/43==" }, "geometry": { "type": "Point", "coordinates": [ -2.963333, 54.934167 ] } },
{ "type": "Feature", "properties": { "synop": "AAXX 21124\n03091 07573 73317 10097 20054 30107 40186 53026 60011 760// 87/// 333 55306 21631 69925 87/27 91027 90710 91129==" }, "geometry": { "type": "Point", "coordinates": [ -2.205278, 57.204722 ] } },
{ "type": "Feature", "properties": { "synop": "AAXX 21121\n03955 12584 43508 10118 20038 30076 40254 52012 69901 83132 333 83830==" }, "geometry": { "type": "Point", "coordinates": [ -8.487778, 51.848056 ] } },
{ "type": "Feature", "properties": { "synop": "AAXX 21121\n14654 12770 12601 10297 20107 39460 40148 57014 60001 81100 333 81850==" }, "geometry": { "type": "Point", "coordinates": [ 18.422778, 43.867778 ] } },
{ "type": "Feature", "properties": { "synop": "AAXX 21124\n16710 12960 00307 10280 20049 39437 40160 57008 60001 333 90730 91119==" }, "geometry": { "type": "Point", "coordinates": [ 22.396944, 37.524444 ] } },
{ "type": "Feature", "properties": { "synop": "AAXX 21124\n16622 12560 12510 10280 20140 30203 40203 57022 60001 81100 333 90730 91113==" }, "geometry": { "type": "Point", "coordinates": [ 22.970278, 40.528889 ] } },
{ "type": "Feature", "properties": { "synop": "AAXX 21121\n12330 12/80 21704 10275 20155 30002 40103 56015 60001 82031==" }, "geometry": { "type": "Point", "coordinates": [ 16.834444, 52.416667 ] } },
{ "type": "Feature", "properties": { "synop": "AAXX 21121\n12272 12/80 31904 10269 20177 39958 40114 57008 60001 81032==" }, "geometry": { "type": "Point", "coordinates": [ 20.422778, 53.770833 ] } },
{ "type": "Feature", "properties": { "synop": "AAXX 21121\n12566 12/84 11904 10292 20108 39870 40143 57016 60001 81030==" }, "geometry": { "type": "Point", "coordinates": [ 19.801667, 50.080278 ] } },
{ "type": "Feature", "properties": { "synop": "AAXX 21121\n15420 04570 40302 10280 20133 30121 40226 57015 60001 84200 333 55307 21889 60007 91005 90760 91105==" }, "geometry": { "type": "Point", "coordinates": [ 26.078056, 44.510278 ] } },
{ "type": "Feature", "properties": { "synop": "AAXX 21121\n02562 01465 72106 10175 20168 39891 40000 56013 60021 76186 8457/ 333 60025 81612 84640 87358 91007 90710 91107 90710 91206==" }, "geometry": { "type": "Point", "coordinates": [ 15.525556, 58.398056 ] } },
{ "type": "Feature", "properties": { "synop": "\t\nAAXX 21121\n01492 01588 72301 10136 20106 39848 49962 52010 69951 70262 8317/ 333 31/// 55300 20634 60005 90710 91105 90760 91203 555 90760 91105==" }, "geometry": { "type": "Point", "coordinates": [ 10.72, 59.941944 ] } },
{ "type": "Feature", "properties": { "synop": "AAXX 21121\n01415 058// 33009 10122 20063 30029 40040 51014 69911 333 60005 90710 91112 90760 91209 555 90760 91113==" }, "geometry": { "type": "Point", "coordinates": [ 5.636944, 58.884167 ] } },
{ "type": "Feature", "properties": { "synop": "AAXX 21121\n26038 25981 72004 10212 20159 30003 40041 57007 333 55309 21235 59048 60005 85/62 87/65 91007 90710 91108==" }, "geometry": { "type": "Point", "coordinates": [ 24.602778, 59.398056 ] } },
{ "type": "Feature", "properties": { "synop": "AAXX 21121\n26422 05970 02103 10241 20163 30078 40082 57007 60001 333 55310 21573 59055 60007 70000 80/67 80/70 80/70 91007 90710 91108 555 60005 90730 91108==" }, "geometry": { "type": "Point", "coordinates": [ 24.115833, 56.950556 ] } },
{ "type": "Feature", "properties": { "synop": "AAXX 21121\n26737 22970 22003 10274 20157 30003 40128 57004 80009\n333 60005 91008 90760 91108==" }, "geometry": { "type": "Point", "coordinates": [ 24.551667, 54.248056 ] } },
{ "type": "Feature", "properties": { "synop": "AAXX 21121\n33301 32960 02205 10281 20144 39931 40193 58009 555 1/038=" }, "geometry": { "type": "Point", "coordinates": [ 26.1525, 50.602222 ] } },
{ "type": "Feature", "properties": { "synop": "AAXX 21121\n33837 32981 01402 10212 20131 30203 40253 58012 555 1/042=" }, "geometry": { "type": "Point", "coordinates": [ 30.770278, 46.440556 ] } },
{ "type": "Feature", "properties": { "synop": "AAXX 21121\n15120 01970 01403 10259 20130 39737 40205 58015 60001 70240 333 55310 01630 22610 30208 60007 91006 90760 91106==" }, "geometry": { "type": "Point", "coordinates": [ 23.571111, 46.7775 ] } },
{ "type": "Feature", "properties": { "synop": "AAXX 21124\n17060 12560 40319 10255 20145 30168 40201 57010 60001 84200 333 84830 90760 91126==" }, "geometry": { "type": "Point", "coordinates": [ 28.816667, 40.966667 ] } },
{ "type": "Feature", "properties": { "synop": "\t\nAAXX 21124\n17300 12960 01911 10325 20070 30059 40126 57013 60001 333 90760 91118==" }, "geometry": { "type": "Point", "coordinates": [ 30.733333, 36.866667 ] } },
{ "type": "Feature", "properties": { "synop": "AAXX 21124\n17026 12570 43608 10253 20157 30199 40237 55001 60001 82104 333 82832 84070 90760 91113==" }, "geometry": { "type": "Point", "coordinates": [ 35.166667, 42.033333 ] } },
{ "type": "Feature", "properties": { "synop": "AAXX 21121\n26961 42970 22505 10275 20145 39981 40157 57005 80001 333 90760 91111==" }, "geometry": { "type": "Point", "coordinates": [ 29.126667, 53.208333 ] } },
{ "type": "Feature", "properties": { "synop": "AAXX 21124\n17096 12660 43214 10151 21019 38261 48520 56002 60001 84200 333 84835 90760 91124==" }, "geometry": { "type": "Point", "coordinates": [ 39.733333, 39.5 ] } },
{ "type": "Feature", "properties": { "synop": "AAXX 21121\n33506 32997 02602 10239 20093 30049 40235 57011 555 1/032=" }, "geometry": { "type": "Point", "coordinates": [ 34.544444, 49.609167 ] } },
{ "type": "Feature", "properties": { "synop": "AAXX 21121\n26781 41960 62203 10239 20156 39868 40143 57011 71042 80001==" }, "geometry": { "type": "Point", "coordinates": [ 32.066667, 54.75 ] } },
{ "type": "Feature", "properties": { "synop": "AAXX 21121\n26179 41570 62003 10205 20166 30053 40083 57009 70285 85531==" }, "geometry": { "type": "Point", "coordinates": [ 31.25, 58.516667 ] } },
{ "type": "Feature", "properties": { "synop": "AAXX 21121\n27402 42460 82102 10187 20151 39955 40124 57007 886//==" }, "geometry": { "type": "Point", "coordinates": [ 35.866667, 56.883056 ] } },
{ "type": "Feature", "properties": { "synop": "AAXX 21121\n34123 42960 52705 10228 20108 30033 40205 57014 80001 333 91010==" }, "geometry": { "type": "Point", "coordinates": [ 39.216667, 51.7 ] } },
{ "type": "Feature", "properties": { "synop": "AAXX 21121\n34560 42/60 33304 10232 20074 30024 40203 57004 83030==" }, "geometry": { "type": "Point", "coordinates": [ 44.366667, 48.783056 ] } },
{ "type": "Feature", "properties": { "synop": "AAXX 21121\n27459 42670 62702 10174 20131 39946 40131 57004 83401 333 83649 91004 90760 91106==" }, "geometry": { "type": "Point", "coordinates": [ 44.0, 56.266667 ] } },
{ "type": "Feature", "properties": { "synop": "AAXX 21121\n28900 42960 72503 10215 20075 39993 40153 57011 80001==" }, "geometry": { "type": "Point", "coordinates": [ 50.216667, 53.25 ] } },
{ "type": "Feature", "properties": { "synop": "AAXX 21121\n34920 82697 20802 10230 20090 30187 40227 57001 82500=" }, "geometry": { "type": "Point", "coordinates": [ 39.1525, 45.041667 ] } },
{ "type": "Feature", "properties": { "synop": "AAXX 21121\n37395 42698 63002 10190 20134 30083 40218 52005 85530=" }, "geometry": { "type": "Point", "coordinates": [ 42.628056, 42.253333 ] } },
{ "type": "Feature", "properties": { "synop": "AAXX 21121\n37864 42597 83310 10198 20123 30178 40187 52015 8396/ 333 91015 91116=" }, "geometry": { "type": "Point", "coordinates": [ 50.066667, 40.45 ] } },
{ "type": "Feature", "properties": { "synop": "AAXX 21121\n35700 41540 80605 10202 20073 30187 40165 53003 78082 8597/==" }, "geometry": { "type": "Point", "coordinates": [ 51.883056, 47.116667 ] } },
{ "type": "Feature", "properties": { "synop": "AAXX 21121\n27962 42660 52804 10204 20087 39977 40175 57010 82885==" }, "geometry": { "type": "Point", "coordinates": [ 45.168889, 53.122778 ] } },
{ "type": "Feature", "properties": { "synop": "AAXX 21121\n27113 41260 82105 10164 20154 39949 40086 54000 72586 883// 333 86705==" }, "geometry": { "type": "Point", "coordinates": [ 38.018333, 59.280556 ] } },
{ "type": "Feature", "properties": { "synop": "AAXX 21121\n06205 47683 13313 10130 20061 30076 40118 53039 70186 81/// 333 91015 90760 91122==" }, "geometry": { "type": "Point", "coordinates": [ 3.8, 55.3 ] } },
{ "type": "Feature", "properties": { "synop": "AAXX 21121\n37085 42570 83601 10207 20097 30239 40214 52005 8653/==" }, "geometry": { "type": "Point", "coordinates": [ 46.549722, 44.399722 ] } }
]
}
